[{"OBJECT_NAME":"STARLINK-3329","OBJECT_ID":"2022-001AA","EPOCH":"2025-09-30T23:41:06.093312","MEAN_MOTION":15.08834691,"ECCENTRICITY":0.00014361,"INCLINATION":53.2161,"RA_OF_ASC_NODE":166.0558,"ARG_OF_PERICENTER":83.3221,"MEAN_ANOMALY":276.7935,"EPHEMERIS_TYPE":0,"CLASSIFICATION_TYPE":"U","NORAD_CAT_ID":50827,"ELEMENT_SET_NO":999,"REV_AT_EPOCH":20629,"BSTAR":-4.6542513e-5,"MEAN_MOTION_DOT":-1.028e-5,"MEAN_MOTION_DDOT":0},{"OBJECT_NAME":"STARLINK-3290","OBJECT_ID":"2022-001AB","EPOCH":"2025-09-30T23:21:16.086240","MEAN_MOTION":15.088341,"ECCENTRICITY":0.00013138,"INCLINATION":53.2155,"RA_OF_ASC_NODE":166.0081,"ARG_OF_PERICENTER":87.6255,"MEAN_ANOMALY":272.4887,"EPHEMERIS_TYPE":0,"CLASSIFICATION_TYPE":"U","NORAD_CAT_ID":50828,"ELEMENT_SET_NO":999,"REV_AT_EPOCH":20614,"BSTAR":-1.43575e-7,"MEAN_MOTION_DOT":-2.9e-6,"MEAN_MOTION_DDOT":0},{"OBJECT_NAME":"STARLINK-3294","OBJECT_ID":"2022-001AC","EPOCH":"2025-10-01T03:02:28.487040","MEAN_MOTION":15.08832085,"ECCENTRICITY":0.00011234,"INCLINATION":53.2156,"RA_OF_ASC_NODE":165.4251,"ARG_OF_PERICENTER":80.018,"MEAN_ANOMALY":280.0939,"EPHEMERIS_TYPE":0,"CLASSIFICATION_TYPE":"U","NORAD_CAT_ID":50829,"ELEMENT_SET_NO":999,"REV_AT_EPOCH":20631,"BSTAR":-3.845781e-6,"MEAN_MOTION_DOT":-3.49e-6,"MEAN_MOTION_DDOT":0},{"OBJECT_NAME":"STARLINK-3278","OBJECT_ID":"2022-001AD","EPOCH":"2025-10-01T00:16:52.549248","MEAN_MOTION":15.08831165,"ECCENTRICITY":0.00017355,"INCLINATION":53.2153,"RA_OF_ASC_NODE":175.9416,"ARG_OF_PERICENTER":99.2272,"MEAN_ANOMALY":260.8917,"EPHEMERIS_TYPE":0,"CLASSIFICATION_TYPE":"U","NORAD_CAT_ID":50830,"ELEMENT_SET_NO":999,"REV_AT_EPOCH":20616,"BSTAR":-4.2254174e-5,"MEAN_MOTION_DOT":-9.6e-6,"MEAN_MOTION_DDOT":0},{"OBJECT_NAME":"STARLINK-3299","OBJECT_ID":"2022-001AE","EPOCH":"2025-10-01T00:34:06.391776","MEAN_MOTION":15.08831095,"ECCENTRICITY":0.0001531,"INCLINATION":53.2159,"RA_OF_ASC_NODE":165.9558,"ARG_OF_PERICENTER":86.6988,"MEAN_ANOMALY":273.4179,"EPHEMERIS_TYPE":0,"CLASSIFICATION_TYPE":"U","NORAD_CAT_ID":50831,"ELEMENT_SET_NO":999,"REV_AT_EPOCH":20630,"BSTAR":-7.2725847e-5,"MEAN_MOTION_DOT":-1.445e-5,"MEAN_MOTION_DDOT":0},{"OBJECT_NAME":"STARLINK-3328","OBJECT_ID":"2022-001AF","EPOCH":"2025-10-01T00:18:16.034112","MEAN_MOTION":15.08827195,"ECCENTRICITY":0.00015452,"INCLINATION":53.2173,"RA_OF_ASC_NODE":175.9846,"ARG_OF_PERICENTER":90.3771,"MEAN_ANOMALY":269.7398,"EPHEMERIS_TYPE":0,"CLASSIFICATION_TYPE":"U","NORAD_CAT_ID":50832,"ELEMENT_SET_NO":999,"REV_AT_EPOCH":20616,"BSTAR":-8.7470516e-5,"MEAN_MOTION_DOT":-1.679e-5,"MEAN_MOTION_DDOT":0},{"OBJECT_NAME":"STARLINK-3331","OBJECT_ID":"2022-001AH","EPOCH":"2025-10-01T03:06:26.065440","MEAN_MOTION":15.08847436,"ECCENTRICITY":0.00013139,"INCLINATION":53.2169,"RA_OF_ASC_NODE":175.4201,"ARG_OF_PERICENTER":90.5741,"MEAN_ANOMALY":269.5402,"EPHEMERIS_TYPE":0,"CLASSIFICATION_TYPE":"U","NORAD_CAT_ID":50834,"ELEMENT_SET_NO":999,"REV_AT_EPOCH":20617,"BSTAR":3.6423952e-5,"MEAN_MOTION_DOT":2.92e-6,"MEAN_MOTION_DDOT":0},{"OBJECT_NAME":"STARLINK-3310","OBJECT_ID":"2022-001AJ","EPOCH":"2025-10-01T03:11:46.044384","MEAN_MOTION":15.08847943,"ECCENTRICITY":9.974e-5,"INCLINATION":53.2157,"RA_OF_ASC_NODE":175.5135,"ARG_OF_PERICENTER":92.5408,"MEAN_ANOMALY":267.5699,"EPHEMERIS_TYPE":0,"CLASSIFICATION_TYPE":"U","NORAD_CAT_ID":50835,"ELEMENT_SET_NO":999,"REV_AT_EPOCH":20617,"BSTAR":0.00036429011,"MEAN_MOTION_DOT":5.516e-5,"MEAN_MOTION_DDOT":0},{"OBJECT_NAME":"STARLINK-3330","OBJECT_ID":"2022-001AK","EPOCH":"2025-10-01T01:05:55.315968","MEAN_MOTION":15.0882633,"ECCENTRICITY":0.00015608,"INCLINATION":53.2169,"RA_OF_ASC_NODE":175.5704,"ARG_OF_PERICENTER":89.3672,"MEAN_ANOMALY":270.7499,"EPHEMERIS_TYPE":0,"CLASSIFICATION_TYPE":"U","NORAD_CAT_ID":50836,"ELEMENT_SET_NO":999,"REV_AT_EPOCH":20606,"BSTAR":-4.8994449e-5,"MEAN_MOTION_DOT":-1.067e-5,"MEAN_MOTION_DDOT":0},{"OBJECT_NAME":"STARLINK-3318","OBJECT_ID":"2022-001AL","EPOCH":"2025-10-01T02:14:46.899168","MEAN_MOTION":15.08840265,"ECCENTRICITY":0.0001345,"INCLINATION":53.2133,"RA_OF_ASC_NODE":165.5773,"ARG_OF_PERICENTER":88.1655,"MEAN_ANOMALY":271.9492,"EPHEMERIS_TYPE":0,"CLASSIFICATION_TYPE":"U","NORAD_CAT_ID":50837,"ELEMENT_SET_NO":999,"REV_AT_EPOCH":20631,"BSTAR":0.00010487587,"MEAN_MOTION_DOT":1.382e-5,"MEAN_MOTION_DDOT":0},{"OBJECT_NAME":"STARLINK-3322","OBJECT_ID":"2022-001AM","EPOCH":"2025-10-01T08:00:03.000384","MEAN_MOTION":15.72852756,"ECCENTRICITY":0.00060249,"INCLINATION":53.1856,"RA_OF_ASC_NODE":87.9541,"ARG_OF_PERICENTER":138.8066,"MEAN_ANOMALY":33.4656,"EPHEMERIS_TYPE":0,"CLASSIFICATION_TYPE":"U","NORAD_CAT_ID":50838,"ELEMENT_SET_NO":999,"REV_AT_EPOCH":598,"BSTAR":0.0020953907,"MEAN_MOTION_DOT":0.00299903,"MEAN_MOTION_DDOT":0},{"OBJECT_NAME":"STARLINK-3320","OBJECT_ID":"2022-001AN","EPOCH":"2025-10-01T02:39:56.977632","MEAN_MOTION":15.08837474,"ECCENTRICITY":0.00017764,"INCLINATION":53.2166,"RA_OF_ASC_NODE":175.4965,"ARG_OF_PERICENTER":97.2114,"MEAN_ANOMALY":262.908,"EPHEMERIS_TYPE":0,"CLASSIFICATION_TYPE":"U","NORAD_CAT_ID":50839,"ELEMENT_SET_NO":999,"REV_AT_EPOCH":20616,"BSTAR":-9.849863e-6,"MEAN_MOTION_DOT":-4.45e-6,"MEAN_MOTION_DDOT":0},{"OBJECT_NAME":"STARLINK-3295","OBJECT_ID":"2022-001AP","EPOCH":"2025-10-01T00:59:16.237824","MEAN_MOTION":15.08833099,"ECCENTRICITY":0.00014662,"INCLINATION":53.2178,"RA_OF_ASC_NODE":175.8122,"ARG_OF_PERICENTER":84.1006,"MEAN_ANOMALY":276.0153,"EPHEMERIS_TYPE":0,"CLASSIFICATION_TYPE":"U","NORAD_CAT_ID":50840,"ELEMENT_SET_NO":999,"REV_AT_EPOCH":20615,"BSTAR":-2.34555e-6,"MEAN_MOTION_DOT":-3.25e-6,"MEAN_MOTION_DDOT":0},{"OBJECT_NAME":"STARLINK-3300","OBJECT_ID":"2022-001AQ","EPOCH":"2025-10-01T02:50:32.252640","MEAN_MOTION":15.08846238,"ECCENTRICITY":0.00013335,"INCLINATION":53.217,"RA_OF_ASC_NODE":175.4629,"ARG_OF_PERICENTER":107.4159,"MEAN_ANOMALY":252.6979,"EPHEMERIS_TYPE":0,"CLASSIFICATION_TYPE":"U","NORAD_CAT_ID":50841,"ELEMENT_SET_NO":999,"REV_AT_EPOCH":20617,"BSTAR":5.9181896e-5,"MEAN_MOTION_DOT":6.54e-6,"MEAN_MOTION_DDOT":0},{"OBJECT_NAME":"STARLINK-3302","OBJECT_ID":"2022-001AR","EPOCH":"2025-10-01T05:40:07.228992","MEAN_MOTION":15.08842868,"ECCENTRICITY":0.00013319,"INCLINATION":53.2164,"RA_OF_ASC_NODE":174.9364,"ARG_OF_PERICENTER":79.332,"MEAN_ANOMALY":280.7822,"EPHEMERIS_TYPE":0,"CLASSIFICATION_TYPE":"U","NORAD_CAT_ID":50842,"ELEMENT_SET_NO":999,"REV_AT_EPOCH":20618,"BSTAR":6.1770657e-5,"MEAN_MOTION_DOT":6.95e-6,"MEAN_MOTION_DDOT":0},{"OBJECT_NAME":"STARLINK-3325","OBJECT_ID":"2022-001AS","EPOCH":"2025-10-01T03:01:08.113440","MEAN_MOTION":15.08847497,"ECCENTRICITY":0.00015616,"INCLINATION":53.2176,"RA_OF_ASC_NODE":175.4308,"ARG_OF_PERICENTER":89.7235,"MEAN_ANOMALY":270.3936,"EPHEMERIS_TYPE":0,"CLASSIFICATION_TYPE":"U","NORAD_CAT_ID":50843,"ELEMENT_SET_NO":999,"REV_AT_EPOCH":20617,"BSTAR":6.0972997e-5,"MEAN_MOTION_DOT":6.83e-6,"MEAN_MOTION_DDOT":0}]
