STARLINK-3329           
1 50827U 22001AA  25273.98687608 -.00001028  00000+0 -46543-4 0  9996
2 50827  53.2161 166.0558 0001436  83.3221 276.7935 15.08834691206299
STARLINK-3290           
1 50828U 22001AB  25273.97310285 -.00000290  00000+0 -14357-6 0  9990
2 50828  53.2155 166.0081 0001313  87.6255 272.4887 15.08834100206140
STARLINK-3294           
1 50829U 22001AC  25274.12671860 -.00000349  00000+0 -38458-5 0  9990
2 50829  53.2156 165.4251 0001123  80.0180 280.0939 15.08832085206319
STARLINK-3278           
1 50830U 22001AD  25274.01171932 -.00000960  00000+0 -42254-4 0  9992
2 50830  53.2153 175.9416 0001735  99.2272 260.8917 15.08831165206163
STARLINK-3299           
1 50831U 22001AE  25274.02368509 -.00001445  00000+0 -72726-4 0  9998
2 50831  53.2159 165.9558 0001531  86.6988 273.4179 15.08831095206302
STARLINK-3328           
1 50832U 22001AF  25274.01268558 -.00001679  00000+0 -87471-4 0  9993
2 50832  53.2173 175.9846 0001545  90.3771 269.7398 15.08827195206168
STARLINK-3331           
1 50834U 22001AH  25274.12946835  .00000292  00000+0  36424-4 0  9998
2 50834  53.2169 175.4201 0001313  90.5741 269.5402 15.08847436206172
STARLINK-3310           
1 50835U 22001AJ  25274.13317181  .00005516  00000+0  36429-3 0  9994
2 50835  53.2157 175.5135 0000997  92.5408 267.5699 15.08847943206175
STARLINK-3330           
1 50836U 22001AK  25274.04577912 -.00001067  00000+0 -48994-4 0  9995
2 50836  53.2169 175.5704 0001560  89.3672 270.7499 15.08826330206064
STARLINK-3318           
1 50837U 22001AL  25274.09359837  .00001382  00000+0  10488-3 0  9999
2 50837  53.2133 165.5773 0001345  88.1655 271.9492 15.08840265206317
STARLINK-3322           
1 50838U 22001AM  25274.33336806  .00299903  00000+0  20954-2 0  9994
2 50838  53.1856  87.9541 0006024 138.8066  33.4656 15.72852756  5989
STARLINK-3320           
1 50839U 22001AN  25274.11107613 -.00000445  00000+0 -98499-5 0  9998
2 50839  53.2166 175.4965 0001776  97.2114 262.9080 15.08837474206161
STARLINK-3295           
1 50840U 22001AP  25274.04116016 -.00000325  00000+0 -23455-5 0  9996
2 50840  53.2178 175.8122 0001466  84.1006 276.0153 15.08833099206151
STARLINK-3300           
1 50841U 22001AQ  25274.11842885  .00000654  00000+0  59182-4 0  9993
2 50841  53.2170 175.4629 0001333 107.4159 252.6979 15.08846238206170
STARLINK-3302           
1 50842U 22001AR  25274.23619478  .00000695  00000+0  61771-4 0  9999
2 50842  53.2164 174.9364 0001331  79.3320 280.7822 15.08842868206184
STARLINK-3325           
1 50843U 22001AS  25274.12578835  .00000683  00000+0  60973-4 0  9999
2 50843  53.2176 175.4308 0001561  89.7235 270.3936 15.08847497206170
